NORAD_CAT_ID,OBJECT_NAME,OBJECT_TYPE,EPOCH,MEAN_MOTION,ECCENTRICITY,INCLINATION,RA_OF_ASC_NODE,ARG_OF_PERICENTER,MEAN_ANOMALY,BSTAR,MEAN_MOTION_DOT,MEAN_MOTION_DDOT,TLE_LINE0,TLE_LINE1,TLE_LINE2,SEMIMAJOR_AXIS,PERIOD,APOGEE,PERIGEE,DECAYED
52618.0,STARLINK-3983,PAYLOAD,2023-04-19 19:25:27,15.08855097,0.0001187,53.216,324.6627,75.7144,284.398,0.00043731,6.682e-05,0.0,0 STARLINK-3983,1 52618U 22052W   23109.80934583  .00006682  00000-0  43731-3 0  9991,2 52618  53.2160 324.6627 0001187  75.7144 284.3980 15.08855097 51734,6917.834,95.437,540.52,538.878,0.0
52618.0,STARLINK-3983,PAYLOAD,2023-04-20 20:51:37,15.08839865,6.56e-05,53.216,319.9043,90.1048,270.0019,-2.5009e-05,-6.86e-06,0.0,0 STARLINK-3983,1 52618U 22052W   23110.86918514 -.00000686  00000-0 -25009-4 0  9994,2 52618  53.2160 319.9043 0000656  90.1048 270.0019 15.08839865 51894,6917.881,95.438,540.2,539.292,0.0
52618.0,STARLINK-3983,PAYLOAD,2023-04-20 22:27:00,15.08847713,0.0001028,53.2158,319.6065,93.4116,266.6993,0.00017589,2.513e-05,0.0,0 STARLINK-3983,1 52618U 22052W   23110.93542432  .00002513  00000-0  17589-3 0  9996,2 52618  53.2158 319.6065 0001028  93.4116 266.6993 15.08847713 52285,6917.857,95.437,540.433,539.011,0.0
52618.0,STARLINK-3983,PAYLOAD,2023-04-21 06:23:56,15.08840667,9.81e-05,53.2159,318.1193,94.5238,265.5866,0.00014148,1.965e-05,0.0,0 STARLINK-3983,1 52618U 22052W   23111.26662578  .00001965  00000-0  14148-3 0  9995,2 52618  53.2159 318.1193 0000981  94.5238 265.5866 15.08840667 52330,6917.878,95.438,540.422,539.065,0.0
52618.0,STARLINK-3983,PAYLOAD,2023-04-21 20:42:24,15.08841421,0.0001062,53.2153,315.4442,101.614,258.4971,0.00011876,1.603e-05,0.0,0 STARLINK-3983,1 52618U 22052W   23111.86278702  .00001603  00000-0  11876-3 0  9997,2 52618  53.2153 315.4442 0001062 101.6140 258.4971 15.08841421 52049,6917.876,95.437,540.476,539.006,0.0
52618.0,STARLINK-3983,PAYLOAD,2023-04-23 14:02:26,15.08836632,7.24e-05,53.2168,307.7129,99.2844,260.823,7.5895e-05,9.2e-06,0.0,0 STARLINK-3983,1 52618U 22052W   23113.58503174  .00000920  00000-0  75895-4 0  9995,2 52618  53.2168 307.7129 0000724  99.2844 260.8230 15.08836632 52300,6917.891,95.438,540.257,539.255,0.0
52618.0,STARLINK-3983,PAYLOAD,2023-04-23 17:13:13,15.08848288,7.6e-05,53.2171,307.1183,99.086,261.0218,0.0003867,5.873e-05,0.0,0 STARLINK-3983,1 52618U 22052W   23113.71751171  .00005873  00000-0  38670-3 0  9993,2 52618  53.2171 307.1183 0000760  99.0860 261.0218 15.08848288 52707,6917.855,95.437,540.246,539.194,0.0
52618.0,STARLINK-3983,PAYLOAD,2023-04-24 12:17:49,15.08871466,7.58e-05,53.2161,303.548,94.8629,265.245,0.00087141,0.0001362,0.0,0 STARLINK-3983,1 52618U 22052W   23114.51238167  .00013620  00000-0  87141-3 0  9993,2 52618  53.2161 303.5480 0000758  94.8629 265.2450 15.08871466 52448,6917.784,95.436,540.174,539.125,0.0
52618.0,STARLINK-3983,PAYLOAD,2023-04-24 18:39:21,15.0890319,0.0001861,53.2152,302.3642,72.5382,287.5814,0.0018057,0.00028617,0.0,0 STARLINK-3983,1 52618U 22052W   23114.77733244  .00028617  00000-0  18057-2 0  9998,2 52618  53.2152 302.3642 0001861  72.5382 287.5814 15.08903190 52867,6917.687,95.434,540.84,538.265,0.0
52618.0,STARLINK-3983,PAYLOAD,2023-04-24 20:14:44,15.08888155,0.0001388,53.2141,302.0659,72.76,287.3544,0.0012387,0.00019507,0.0,0 STARLINK-3983,1 52618U 22052W   23114.84357337  .00019507  00000-0  12387-2 0  9999,2 52618  53.2141 302.0659 0001388  72.7600 287.3544 15.08888155 52871,6917.733,95.435,540.558,538.638,0.0
52618.0,STARLINK-3983,PAYLOAD,2023-04-25 05:47:04,15.08837714,0.0001998,53.2151,300.2801,73.5541,286.5671,-0.0002827,-4.784e-05,0.0,0 STARLINK-3983,1 52618U 22052W   23115.24102197 -.00004784  00000-0 -28270-3 0  9998,2 52618  53.2151 300.2801 0001998  73.5541 286.5671 15.08837714 52935,6917.887,95.438,541.135,538.37,0.0
52618.0,STARLINK-3983,PAYLOAD,2023-04-26 11:59:26,15.08817108,0.0001073,53.2146,294.632,49.5137,310.5948,0.00055853,8.607e-05,0.0,0 STARLINK-3983,1 52618U 22052W   23116.49961373  .00008607  00000-0  55853-3 0  9998,2 52618  53.2146 294.6320 0001073  49.5137 310.5948 15.08817108 52748,6917.95,95.439,540.558,539.073,0.0
52618.0,STARLINK-3983,PAYLOAD,2023-04-26 18:20:59,15.08840145,0.0001515,53.2146,293.4396,87.1987,272.9179,0.0012298,0.00019339,0.0,0 STARLINK-3983,1 52618U 22052W   23116.76457539  .00019339  00000-0  12298-2 0  9991,2 52618  53.2146 293.4396 0001515  87.1987 272.9179 15.08840145 52788,6917.88,95.438,540.793,538.697,0.0
52618.0,STARLINK-3983,PAYLOAD,2023-04-27 11:50:12,15.08863322,0.0001427,53.2149,290.168,81.4997,278.6156,0.00053674,8.27e-05,0.0,0 STARLINK-3983,1 52618U 22052W   23117.49320278  .00008270  00000-0  53674-3 0  9997,2 52618  53.2149 290.1680 0001427  81.4997 278.6156 15.08863322 52893,6917.809,95.436,540.661,538.687,0.0
52618.0,STARLINK-3983,PAYLOAD,2023-04-27 15:00:58,15.08867579,0.000151,53.2151,289.5721,85.3568,274.7596,0.00057591,8.896e-05,0.0,0 STARLINK-3983,1 52618U 22052W   23117.62567983  .00008896  00000-0  57591-3 0  9994,2 52618  53.2151 289.5721 0001510  85.3568 274.7596 15.08867579 53292,6917.796,95.436,540.706,538.617,0.0
52618.0,STARLINK-3983,PAYLOAD,2023-04-28 18:02:31,15.08854325,0.0001669,53.2145,284.5164,99.9633,260.1547,0.00019086,2.752e-05,0.0,0 STARLINK-3983,1 52618U 22052W   23118.75175436  .00002752  00000-0  19086-3 0  9999,2 52618  53.2145 284.5164 0001669  99.9633 260.1547 15.08854325 53469,6917.837,95.437,540.856,538.547,0.0
52618.0,STARLINK-3983,PAYLOAD,2023-04-29 03:34:50,15.08842795,0.0001501,53.2147,282.7324,98.6201,261.4961,-8.6797e-05,-1.669e-05,0.0,0 STARLINK-3983,1 52618U 22052W   23119.14919563 -.00001669  00000-0 -86797-4 0  9992,2 52618  53.2147 282.7324 0001501  98.6201 261.4961 15.08842795 53520,6917.872,95.437,540.775,538.698,0.0
52618.0,STARLINK-3983,PAYLOAD,2023-04-29 11:31:46,15.08842894,0.0001569,53.2138,281.2461,106.9895,253.1269,-0.00020469,-3.544e-05,0.0,0 STARLINK-3983,1 52618U 22052W   23119.48039504 -.00003544  00000-0 -20469-3 0  9994,2 52618  53.2138 281.2461 0001569 106.9895 253.1269 15.08842894 53194,6917.872,95.437,540.822,538.651,0.0
52618.0,STARLINK-3983,PAYLOAD,2023-04-30 09:47:10,15.08835984,0.0001303,53.2149,277.0825,101.5484,258.5654,5.4265e-05,5.76e-06,0.0,0 STARLINK-3983,1 52618U 22052W   23120.40775889  .00000576  00000-0  54265-4 0  9993,2 52618  53.2149 277.0825 0001303 101.5484 258.5654 15.08835984 53711,6917.893,95.438,540.659,538.856,0.0
52618.0,STARLINK-3983,PAYLOAD,2023-04-30 14:33:19,15.08837136,0.000134,53.2153,276.1897,100.6665,259.4478,7.1387e-06,-1.74e-06,0.0,0 STARLINK-3983,1 52618U 22052W   23120.60647908 -.00000174  00000-0  71387-5 0  9995,2 52618  53.2153 276.1897 0001340 100.6665 259.4478 15.08837136 53363,6917.889,95.438,540.681,538.827,0.0
52618.0,STARLINK-3983,PAYLOAD,2023-05-01 12:48:44,15.0883309,0.0001321,53.2163,272.0264,99.1365,260.9777,7.3164e-05,8.76e-06,0.0,0 STARLINK-3983,1 52618U 22052W   23121.53384593  .00000876  00000-0  73164-4 0  9998,2 52618  53.2163 272.0264 0001321  99.1365 260.9777 15.08833090 53505,6917.902,95.438,540.68,538.853,0.0
52618.0,STARLINK-3983,PAYLOAD,2023-05-01 17:34:53,15.08841161,0.0001219,53.2162,271.1343,102.5848,257.528,8.1181e-05,1.004e-05,0.0,0 STARLINK-3983,1 52618U 22052W   23121.73256066  .00001004  00000-0  81181-4 0  9995,2 52618  53.2162 271.1343 0001219 102.5848 257.5280 15.08841161 53917,6917.877,95.437,540.585,538.899,0.0
52618.0,STARLINK-3983,PAYLOAD,2023-05-02 09:28:44,15.08843654,0.0001201,53.2163,268.1604,103.1136,256.999,0.00012323,1.674e-05,0.0,0 STARLINK-3983,1 52618U 22052W   23122.39495803  .00001674  00000-0  12323-3 0  9996,2 52618  53.2163 268.1604 0001201 103.1136 256.9990 15.08843654 53631,6917.869,95.437,540.565,538.903,0.0
52618.0,STARLINK-3983,PAYLOAD,2023-05-02 17:25:39,15.08853238,0.000106,53.2164,266.6742,81.9219,278.1894,0.00018074,2.591e-05,0.0,0 STARLINK-3983,1 52618U 22052W   23122.72615078  .00002591  00000-0  18074-3 0  9999,2 52618  53.2164 266.6742 0001060  81.9219 278.1894 15.08853238 54062,6917.84,95.437,540.438,538.972,0.0
52618.0,STARLINK-3983,PAYLOAD,2023-05-03 09:19:31,15.08838589,0.0001245,53.2163,263.7016,96.2059,263.9075,3.9088e-05,3.34e-06,0.0,0 STARLINK-3983,1 52618U 22052W   23123.38856380  .00000334  00000-0  39088-4 0  9997,2 52618  53.2163 263.7016 0001245  96.2059 263.9075 15.08838589 54165,6917.885,95.438,540.611,538.888,0.0
52618.0,STARLINK-3983,PAYLOAD,2023-05-03 14:05:41,15.08837121,0.000132,53.2166,262.8091,92.6344,267.4799,1.6634e-05,-2.3e-07,0.0,0 STARLINK-3983,1 52618U 22052W   23123.58728524 -.00000023  00000-0  16634-4 0  9995,2 52618  53.2166 262.8091 0001320  92.6344 267.4799 15.08837121 53816,6917.889,95.438,540.667,538.841,0.0
52618.0,STARLINK-3983,PAYLOAD,2023-05-03 17:16:27,15.0883716,0.0001238,53.2165,262.2146,96.0956,264.0177,1.535e-05,-4.4e-07,0.0,0 STARLINK-3983,1 52618U 22052W   23123.71976522 -.00000044  00000-0  15350-4 0  9990,2 52618  53.2165 262.2146 0001238  96.0956 264.0177 15.08837160 53833,6917.889,95.438,540.611,538.898,0.0
52618.0,STARLINK-3983,PAYLOAD,2023-05-04 13:56:27,15.08847549,0.0001198,53.2159,258.3481,93.8775,266.2355,1.3966e-05,-6.6e-07,0.0,0 STARLINK-3983,1 52618U 22052W   23124.58087900 -.00000066  00000-0  13966-4 0  9994,2 52618  53.2159 258.3481 0001198  93.8775 266.2355 15.08847549 53961,6917.857,95.437,540.551,538.894,0.0
52618.0,STARLINK-3983,PAYLOAD,2023-05-04 15:31:50,15.08849753,0.0001206,53.2158,258.0506,94.5659,265.5471,3.6572e-05,2.94e-06,0.0,0 STARLINK-3983,1 52618U 22052W   23124.64711710  .00000294  00000-0  36572-4 0  9994,2 52618  53.2158 258.0506 0001206  94.5659 265.5471 15.08849753 54358,6917.851,95.437,540.55,538.881,0.0
52618.0,STARLINK-3983,PAYLOAD,2023-05-05 12:11:52,15.08836254,0.0001207,53.2152,254.1837,98.5838,261.5291,0.00013143,1.804e-05,0.0,0 STARLINK-3983,1 52618U 22052W   23125.50824576  .00001804  00000-0  13143-3 0  9991,2 52618  53.2152 254.1837 0001207  98.5838 261.5291 15.08836254 54482,6917.892,95.438,540.592,538.922,0.0
